#aV2020  4 15  0  0  0.00000000     288 DD+AD WGS84 FIT  NGA
## 2101 259200.00000000   300.00000000 58954 0.0000000000000
+   32     1  2  3  4  5  6  7  8  9 10 11 12 13 14 15 16 17
+         18 19 20 21 22 23 24 25 26 27 28 29 30 31 32  0  0
+          0  0  0  0  0  0  0  0  0  0  0  0  0  0  0  0  0
+          0  0  0  0  0  0  0  0  0  0  0  0  0  0  0  0  0
+          0  0  0  0  0  0  0  0  0  0  0  0  0  0  0  0  0
++         2  2  2  2  2  2  2  2  2  2  2  2  2  2  2  2  2
++         2  2  2  2  2  2  2  2  2  2  2  2  2  2  2  0  0
++         0  0  0  0  0  0  0  0  0  0  0  0  0  0  0  0  0
++         0  0  0  0  0  0  0  0  0  0  0  0  0  0  0  0  0
++         0  0  0  0  0  0  0  0  0  0  0  0  0  0  0  0  0
%c cc cc ccc ccc cccc cccc cccc cccc ccccc ccccc ccccc ccccc
%c cc cc ccc ccc cccc cccc cccc cccc ccccc ccccc ccccc ccccc
%f  0.0000000  0.000000000  0.00000000000  0.000000000000000
%f  0.0000000  0.000000000  0.00000000000  0.000000000000000
%i    0    0    0    0      0      0      0      0         0
%i    0    0    0    0      0      0      0      0         0
/*      NGA, ST. LOUIS,MO.                                  
/*   EPHEMERIS COMPUTED FROM 2 DAYS OF DATA                 
/*   EPOCHA v5 SMOOTHER                                     
/*   G1762 IERS2010 SATAF SATAPC                            
*  2020  4 15 17 10  0.00000000
P  1  12367.436104 -20821.399907 -10715.559885   -358.386255                    
V  1  11369.829275  -7364.242619  28316.165994     -0.102529                    
P  2 -21123.110488  12295.237174  -9675.529796   -439.967901                    
V  2   7120.200729 -11502.467274 -28368.161565     -0.064412                    
P  3   3246.435710 -14843.262344 -21843.151231   -146.648279                    
V  3  26318.820493   8264.151655  -1610.080378     -0.109985                    
P  4   1280.851205 -25150.394724  -8386.367368    -76.575134                    
V  4   4557.041202  10007.566254 -29305.705653     -0.051312                    
P  5 -22558.276219   3647.249052  13567.893271    -10.911089                    
V  5 -16102.465085  -6975.650911 -24458.830473     -0.006625                    
P  6 -19580.758803   1687.453727 -17836.025760   -253.249334                    
V  6  15855.523317 -16282.959957 -18845.755566     -0.076515                    
P  7  -4544.252971 -15903.509774  20981.944140   -259.351813                    
V  7  20146.782848 -16619.238166  -8833.727972     -0.086031                    
P  8   8219.539168 -17932.897024  17677.701786    -30.744537                    
V  8   6749.610488  21511.849271  18951.414531     -0.013477                    
P  9  -7481.266680 -25390.051006   2035.408920   -198.382900                    
V  9   2385.320700  -3285.020412 -31450.425696     -0.077150                    
P 10  23192.892374  11735.666618   6121.024401   -311.198875                    
V 10  -7969.075554    -14.157246  30429.854452     -0.120438                    
P 11  12195.078834 -23364.228844   3920.008071   -304.348388                    
V 11   1786.403263   6640.440439  29927.451698      0.107600                    
P 12  -5805.250324  13763.400524 -22196.036736    128.905484                    
V 12 -25587.542289 -10243.170320    504.988474     -0.043156                    
P 13 -13213.686816  10297.641348  20470.027559      2.361629                    
V 13  -3302.965426 -26071.896956  11004.993536      0.030491                    
P 14  15325.636825   5847.665794 -20585.158252    -19.397702                    
V 14   2850.517019  26744.207489   9378.541188      0.024984                    
P 15  -6652.210247  19250.895645  16537.361072   -237.775665                    
V 15  -9434.065573 -19879.936008  19371.579351      0.026073                    
P 16  22112.799910  -1505.407489  14750.111273   -146.963010                    
V 16  16877.223015   8614.622595 -23633.267734     -0.043944                    
P 17 -13399.188625 -15933.338605 -16100.255870    249.246623                    
V 17  -1873.937355 -21137.877971  21865.030360      0.062261                    
P 18     36.958847  17975.648563  19550.076087    157.396547                    
V 18 -19538.278689  15355.516279 -14103.862347      0.135033                    
P 19 -14910.098428  -7678.399683 -20896.475901   -171.661456                    
V 19  -2254.342005 -25702.223075  11205.261159      0.051309                    
P 20  15660.682206  14619.470790  15752.562006    527.807510                    
V 20 -20249.537472  -1170.765354  20896.538022     -0.000244                    
P 21   5606.916422  16012.588424  21278.407980    -13.807671                    
V 21 -17890.658163  17775.724371  -8728.898834      0.049871                    
P 22  12708.830178 -12148.525958 -19649.829511   -784.658238                    
V 22  24624.112371   7125.357603  11522.113073      0.006365                    
P 23  -3936.795688 -25814.973468  -3192.754151   -121.859016                    
V 23   4669.828719   3550.274193 -31273.928738      0.029692                    
P 24 -12543.217071  21723.467302  -8342.929252    -11.752118                    
V 24  -9840.466860   5042.418524  28958.063921     -0.005445                    
P 25   6462.356904  16594.130591 -20026.865460     -2.937694                    
V 25 -23919.308439  -6666.385873 -13137.332649      0.025148                    
P 26  25981.181045   3798.270381   4693.409616    188.097338                    
V 26   4941.735447   4503.877005 -30552.354042      0.073671                    
P 27  13435.811401  -6857.149348  21692.102801   -267.710925                    
V 27   6492.248903  27092.632194   4842.715646     -0.104564                    
P 28 -22444.519863 -13278.103861   5186.650729    725.137706                    
V 28   6278.176858    195.178076  31326.278700     -0.030775                    
P 29   3745.236453  26283.062210   -249.614533    -81.791312                    
V 29  -2052.573816     35.763227 -32312.607315     -0.090429                    
P 30 -14465.993218  -7803.815691  20929.872179   -199.061016                    
V 30  19769.940967 -17726.699967   6857.527311     -0.084805                    
P 31  20901.880847  -2788.694210 -16455.261297    -36.220972                    
V 31 -14558.047868  14737.923622 -20590.703382     -0.024318                    
P 32  15160.241151  14283.171699 -16486.781303    260.286969                    
V 32   2866.704047  20918.980440  20517.910818      0.083832                    
EOF
